[
    {
        "Altitude(m)": 612502.2337773865,
        "Argument of Periapsis(deg)": 0.0,
        "Eccentricity": 0.0,
        "Inclination(deg)": 60.0,
        "Latitude(deg)": -28.136099880238795,
        "Longitude(deg)": -147.85180321465148,
        "Mean Anomaly(deg)": -32.72730000000001,
        "RAAN(deg)": 330.0,
        "Satellite Name": "Test1 1472",
        "Satellite Number": 1472,
        "Semi-Major Axis(m)": 6980739.136638005,
        "Time(s)": 0
    },
    {
        "Altitude(m)": 612308.6813766386,
        "Argument of Periapsis(deg)": 0.00010418945913296404,
        "Eccentricity": 0.0,
        "Inclination(deg)": 60.0,
        "Latitude(deg)": -27.62315580694775,
        "Longitude(deg)": -147.49832753212561,
        "Mean Anomaly(deg)": -32.10719385453816,
        "RAAN(deg)": 329.9995799508602,
        "Satellite Name": "Test1 1472",
        "Satellite Number": 1472,
        "Semi-Major Axis(m)": 6980739.136638005,
        "Time(s)": 10
    },
    {
        "Altitude(m)": 612116.097860147,
        "Argument of Periapsis(deg)": 0.0002083789182659281,
        "Eccentricity": 0.0,
        "Inclination(deg)": 60.0,
        "Latitude(deg)": -27.109042861090757,
        "Longitude(deg)": -147.14850303466457,
        "Mean Anomaly(deg)": -31.487087709076306,
        "RAAN(deg)": 329.9991599017205,
        "Satellite Name": "Test1 1472",
        "Satellite Number": 1472,
        "Semi-Major Axis(m)": 6980739.136638005,
        "Time(s)": 20
    },
    {
        "Altitude(m)": 611924.5528146611,
        "Argument of Periapsis(deg)": 0.00031256837739889213,
        "Eccentricity": 0.0,
        "Inclination(deg)": 60.0,
        "Latitude(deg)": -26.593795358381126,
        "Longitude(deg)": -146.80222530531873,
        "Mean Anomaly(deg)": -30.866981563614505,
        "RAAN(deg)": 329.9987398525808,
        "Satellite Name": "Test1 1472",
        "Satellite Number": 1472,
        "Semi-Major Axis(m)": 6980739.136638005,
        "Time(s)": 30
    },
    {
        "Altitude(m)": 611734.115220311,
        "Argument of Periapsis(deg)": 0.0004167578365318562,
        "Eccentricity": 0.0,
        "Inclination(deg)": 60.0,
        "Latitude(deg)": -26.077446765180177,
        "Longitude(deg)": -146.45939164474066,
        "Mean Anomaly(deg)": -30.246875418152648,
        "RAAN(deg)": 329.998319803441,
        "Satellite Name": "Test1 1472",
        "Satellite Number": 1472,
        "Semi-Major Axis(m)": 6980739.136638005,
        "Time(s)": 40
    },
    {
        "Altitude(m)": 611544.8534201353,
        "Argument of Periapsis(deg)": 0.0005209472956648203,
        "Eccentricity": 0.0,
        "Inclination(deg)": 60.0,
        "Latitude(deg)": -25.560029730898133,
        "Longitude(deg)": -146.1199020159263,
        "Mean Anomaly(deg)": -29.626769272690794,
        "RAAN(deg)": 329.9978997543013,
        "Satellite Name": "Test1 1472",
        "Satellite Number": 1472,
        "Semi-Major Axis(m)": 6980739.136638005,
        "Time(s)": 50
    },
    {
        "Altitude(m)": 611356.8350898204,
        "Argument of Periapsis(deg)": 0.0006251367547977843,
        "Eccentricity": 0.0,
        "Inclination(deg)": 60.0,
        "Latitude(deg)": -25.04157611929355,
        "Longitude(deg)": -145.78365847683602,
        "Mean Anomaly(deg)": -29.006663127229043,
        "RAAN(deg)": 329.99747970516154,
        "Satellite Name": "Test1 1472",
        "Satellite Number": 1472,
        "Semi-Major Axis(m)": 6980739.136638005,
        "Time(s)": 60
    },
    {
        "Altitude(m)": 611170.1272077856,
        "Argument of Periapsis(deg)": 0.0007293262139307483,
        "Eccentricity": 0.0,
        "Inclination(deg)": 60.0,
        "Latitude(deg)": -24.522117038706277,
        "Longitude(deg)": -145.4505646138278,
        "Mean Anomaly(deg)": -28.38655698176714,
        "RAAN(deg)": 329.9970596560218,
        "Satellite Name": "Test1 1472",
        "Satellite Number": 1472,
        "Semi-Major Axis(m)": 6980739.136638005,
        "Time(s)": 70
    },
    {
        "Altitude(m)": 610984.7960255644,
        "Argument of Periapsis(deg)": 0.0008335156730637124,
        "Eccentricity": 0.0,
        "Inclination(deg)": 60.0,
        "Latitude(deg)": -24.001682871260556,
        "Longitude(deg)": -145.12052648882963,
        "Mean Anomaly(deg)": -27.76645083630539,
        "RAAN(deg)": 329.99663960688207,
        "Satellite Name": "Test1 1472",
        "Satellite Number": 1472,
        "Semi-Major Axis(m)": 6980739.136638005,
        "Time(s)": 80
    },
    {
        "Altitude(m)": 610800.9070385232,
        "Argument of Periapsis(deg)": 0.0009377051321966765,
        "Eccentricity": 0.0,
        "Inclination(deg)": 60.0,
        "Latitude(deg)": -23.480303301077008,
        "Longitude(deg)": -144.79345207454148,
        "Mean Anomaly(deg)": -27.146344690843538,
        "RAAN(deg)": 329.9962195577423,
        "Satellite Name": "Test1 1472",
        "Satellite Number": 1472,
        "Semi-Major Axis(m)": 6980739.136638005,
        "Time(s)": 90
    },
    {
        "Altitude(m)": 610618.5249569286,
        "Argument of Periapsis(deg)": 0.0010418945913296407,
        "Eccentricity": 0.0,
        "Inclination(deg)": 60.0,
        "Latitude(deg)": -22.958007341530625,
        "Longitude(deg)": -144.4692506905766,
        "Mean Anomaly(deg)": -26.526238545381684,
        "RAAN(deg)": 329.99579950860254,
        "Satellite Name": "Test1 1472",
        "Satellite Number": 1472,
        "Semi-Major Axis(m)": 6980739.136638005,
        "Time(s)": 100
    },
    {
        "Altitude(m)": 610437.7136773608,
        "Argument of Periapsis(deg)": 0.0011460840504626045,
        "Eccentricity": 0.0,
        "Inclination(deg)": 60.0,
        "Latitude(deg)": -22.434823361584666,
        "Longitude(deg)": -144.14783395344122,
        "Mean Anomaly(deg)": -25.906132399919883,
        "RAAN(deg)": 329.99537945946287,
        "Satellite Name": "Test1 1472",
        "Satellite Number": 1472,
        "Semi-Major Axis(m)": 6980739.136638005,
        "Time(s)": 110
    },
    {
        "Altitude(m)": 610258.5362545196,
        "Argument of Periapsis(deg)": 0.0012502735095955685,
        "Eccentricity": 0.0,
        "Inclination(deg)": 60.0,
        "Latitude(deg)": -21.910779111241144,
        "Longitude(deg)": -143.82911521462387,
        "Mean Anomaly(deg)": -25.28602625445803,
        "RAAN(deg)": 329.9949594103231,
        "Satellite Name": "Test1 1472",
        "Satellite Number": 1472,
        "Semi-Major Axis(m)": 6980739.136638005,
        "Time(s)": 120
    },
    {
        "Altitude(m)": 610081.0548734019,
        "Argument of Periapsis(deg)": 0.0013544629687285324,
        "Eccentricity": 0.0,
        "Inclination(deg)": 60.0,
        "Latitude(deg)": -21.385901746139375,
        "Longitude(deg)": -143.51300899968146,
        "Mean Anomaly(deg)": -24.66592010899628,
        "RAAN(deg)": 329.99453936118334,
        "Satellite Name": "Test1 1472",
        "Satellite Number": 1472,
        "Semi-Major Axis(m)": 6980739.136638005,
        "Time(s)": 130
    },
    {
        "Altitude(m)": 609905.3308219027,
        "Argument of Periapsis(deg)": 0.0014586524278614966,
        "Eccentricity": 0.0,
        "Inclination(deg)": 60.0,
        "Latitude(deg)": -20.86021785133168,
        "Longitude(deg)": -143.19943196120468,
        "Mean Anomaly(deg)": -24.045813963534425,
        "RAAN(deg)": 329.99411931204355,
        "Satellite Name": "Test1 1472",
        "Satellite Number": 1472,
        "Semi-Major Axis(m)": 6980739.136638005,
        "Time(s)": 140
    },
    {
        "Altitude(m)": 609731.4244638134,
        "Argument of Periapsis(deg)": 0.0015628418869944607,
        "Eccentricity": 0.0,
        "Inclination(deg)": 60.0,
        "Latitude(deg)": -20.333753464275038,
        "Longitude(deg)": -142.88830231991847,
        "Mean Anomaly(deg)": -23.425707818072624,
        "RAAN(deg)": 329.9936992629039,
        "Satellite Name": "Test1 1472",
        "Satellite Number": 1472,
        "Semi-Major Axis(m)": 6980739.136638005,
        "Time(s)": 150
    },
    {
        "Altitude(m)": 609559.3952122579,
        "Argument of Periapsis(deg)": 0.0016670313461274247,
        "Eccentricity": 0.0,
        "Inclination(deg)": 60.0,
        "Latitude(deg)": -19.806534097065118,
        "Longitude(deg)": -142.57953930678917,
        "Mean Anomaly(deg)": -22.80560167261077,
        "RAAN(deg)": 329.99327921376414,
        "Satellite Name": "Test1 1472",
        "Satellite Number": 1472,
        "Semi-Major Axis(m)": 6980739.136638005,
        "Time(s)": 160
    },
    {
        "Altitude(m)": 609389.3015035918,
        "Argument of Periapsis(deg)": 0.0017712208052603888,
        "Eccentricity": 0.0,
        "Inclination(deg)": 60.0,
        "Latitude(deg)": -19.278584757942724,
        "Longitude(deg)": -142.27306411900938,
        "Mean Anomaly(deg)": -22.185495527148916,
        "RAAN(deg)": 329.99285916462435,
        "Satellite Name": "Test1 1472",
        "Satellite Number": 1472,
        "Semi-Major Axis(m)": 6980739.136638005,
        "Time(s)": 170
    },
    {
        "Altitude(m)": 609221.2007717291,
        "Argument of Periapsis(deg)": 0.001875410264393353,
        "Eccentricity": 0.0,
        "Inclination(deg)": 60.0,
        "Latitude(deg)": -18.749929972105427,
        "Longitude(deg)": -141.9687993641027,
        "Mean Anomaly(deg)": -21.565389381687062,
        "RAAN(deg)": 329.9924391154846,
        "Satellite Name": "Test1 1472",
        "Satellite Number": 1472,
        "Semi-Major Axis(m)": 6980739.136638005,
        "Time(s)": 180
    },
    {
        "Altitude(m)": 609055.1494229623,
        "Argument of Periapsis(deg)": 0.0019795997235263173,
        "Eccentricity": 0.0,
        "Inclination(deg)": 60.0,
        "Latitude(deg)": -18.220593801851383,
        "Longitude(deg)": -141.66666850501298,
        "Mean Anomaly(deg)": -20.94528323622526,
        "RAAN(deg)": 329.99201906634494,
        "Satellite Name": "Test1 1472",
        "Satellite Number": 1472,
        "Semi-Major Axis(m)": 6980739.136638005,
        "Time(s)": 190
    }
]